{"type": "FeatureCollection", "features": [ {"type": "Feature", "properties": {"norad_id": 43565, "name": "GSAT0222 (GALILEO 26)", "group": "gnss", "lat": -52.917105810334846, "lon": -134.93587401459627, "alt_km": 23210.264008752925, "timestamp": "2025-12-20T18:51:31.957998+00:00", "meta": {"OBJECT_NAME": "GSAT0222 (GALILEO 26)", "OBJECT_ID": "2018-060B", "EPOCH": "2025-12-18T00:42:17.845344", "MEAN_MOTION": 1.70475645, "ECCENTRICITY": 0.00060883, "INCLINATION": 57.23, "RA_OF_ASC_NODE": 346.6777, "ARG_OF_PERICENTER": 265.4214, "MEAN_ANOMALY": 94.5238, "EPHEMERIS_TYPE": 0, "CLASSIFICATION_TYPE": "U", "NORAD_CAT_ID": 43565, "ELEMENT_SET_NO": 999, "REV_AT_EPOCH": 4612, "BSTAR": 0, "MEAN_MOTION_DOT": -7.6e-07, "MEAN_MOTION_DDOT": 0}, "tle": {"line1": "1 43565U 18060B   25352.02937321 -.00000076  00000+0  00000+0 0  9994", "line2": "2 43565  57.2300 346.6777 0006088 265.4214  94.5238  1.70475645 46121"}}, "geometry": {"type": "Point", "coordinates": [-134.93587401459627, -52.917105810334846]}}, {"type": "Feature", "properties": {"norad_id": 43566, "name": "GSAT0219 (GALILEO 23)", "group": "gnss", "lat": 49.118531418795534, "lon": 118.5023168053275, "alt_km": 23233.516041040326, "timestamp": "2025-12-20T18:51:31.958009+00:00", "meta": {"OBJECT_NAME": "GSAT0219 (GALILEO 23)", "OBJECT_ID": "2018-060C", "EPOCH": "2025-12-18T20:05:25.027008", "MEAN_MOTION": 1.70475846, "ECCENTRICITY": 0.00058667, "INCLINATION": 57.2292, "RA_OF_ASC_NODE": 346.6575, "ARG_OF_PERICENTER": 289.8664, "MEAN_ANOMALY": 70.0835, "EPHEMERIS_TYPE": 0, "CLASSIFICATION_TYPE": "U", "NORAD_CAT_ID": 43566, "ELEMENT_SET_NO": 999, "REV_AT_EPOCH": 4611, "BSTAR": 0, "MEAN_MOTION_DOT": -7.4e-07, "MEAN_MOTION_DDOT": 0}, "tle": {"line1": "1 43566U 18060C   25352.83709522 -.00000074  00000+0  00000+0 0  9992", "line2": "2 43566  57.2292 346.6575 0005866 289.8664  70.0835  1.70475846 46114"}}, "geometry": {"type": "Point", "coordinates": [118.5023168053275, 49.118531418795534]}}, {"type": "Feature", "properties": {"norad_id": 43567, "name": "GSAT0220 (GALILEO 24)", "group": "gnss", "lat": -16.41145069290661, "lon": -24.342728550715798, "alt_km": 23213.24801256655, "timestamp": "2025-12-20T18:51:31.958022+00:00", "meta": {"OBJECT_NAME": "GSAT0220 (GALILEO 24)", "OBJECT_ID": "2018-060D", "EPOCH": "2025-12-19T15:28:13.770912", "MEAN_MOTION": 1.70475932, "ECCENTRICITY": 0.000607, "INCLINATION": 57.2288, "RA_OF_ASC_NODE": 346.6359, "ARG_OF_PERICENTER": 288.3471, "MEAN_ANOMALY": 71.5983, "EPHEMERIS_TYPE": 0, "CLASSIFICATION_TYPE": "U", "NORAD_CAT_ID": 43567, "ELEMENT_SET_NO": 999, "REV_AT_EPOCH": 4611, "BSTAR": 0, "MEAN_MOTION_DOT": -7.2e-07, "MEAN_MOTION_DDOT": 0}, "tle": {"line1": "1 43567U 18060D   25353.64460383 -.00000072  00000+0  00000+0 0  9990", "line2": "2 43567  57.2288 346.6359 0006070 288.3471  71.5983  1.70475932 46114"}}, "geometry": {"type": "Point", "coordinates": [-24.342728550715798, -16.41145069290661]}}, {"type": "Feature", "properties": {"norad_id": 43581, "name": "BEIDOU-3 M5 (C23)", "group": "gnss", "lat": -27.592444004245873, "lon": 166.10701975863984, "alt_km": 21527.28238023269, "timestamp": "2025-12-20T18:51:31.958033+00:00", "meta": {"OBJECT_NAME": "BEIDOU-3 M5 (C23)", "OBJECT_ID": "2018-062A", "EPOCH": "2025-12-20T07:13:15.600000", "MEAN_MOTION": 1.86228934, "ECCENTRICITY": 0.00019686, "INCLINATION": 54.0899, "RA_OF_ASC_NODE": 188.386, "ARG_OF_PERICENTER": 359.6013, "MEAN_ANOMALY": 0.4548, "EPHEMERIS_TYPE": 0, "CLASSIFICATION_TYPE": "U", "NORAD_CAT_ID": 43581, "ELEMENT_SET_NO": 999, "REV_AT_EPOCH": 5030, "BSTAR": 0, "MEAN_MOTION_DOT": 9.7e-07, "MEAN_MOTION_DDOT": 0}, "tle": {"line1": "1 43581U 18062A   25354.30087500  .00000097  00000+0  00000+0 0  9994", "line2": "2 43581  54.0899 188.3860 0001968 359.6013   0.4548  1.86228934 50305"}}, "geometry": {"type": "Point", "coordinates": [166.10701975863984, -27.592444004245873]}}, {"type": "Feature", "properties": {"norad_id": 43582, "name": "BEIDOU-3 M6 (C24)", "group": "gnss", "lat": 42.78359912828912, "lon": -129.48697767397258, "alt_km": 21501.365301078557, "timestamp": "2025-12-20T18:51:31.958044+00:00", "meta": {"OBJECT_NAME": "BEIDOU-3 M6 (C24)", "OBJECT_ID": "2018-062B", "EPOCH": "2025-12-20T03:56:01.701312", "MEAN_MOTION": 1.86229954, "ECCENTRICITY": 0.00078337, "INCLINATION": 54.0893, "RA_OF_ASC_NODE": 188.3797, "ARG_OF_PERICENTER": 47.8799, "MEAN_ANOMALY": 312.2437, "EPHEMERIS_TYPE": 0, "CLASSIFICATION_TYPE": "U", "NORAD_CAT_ID": 43582, "ELEMENT_SET_NO": 999, "REV_AT_EPOCH": 5030, "BSTAR": 0, "MEAN_MOTION_DOT": 9.8e-07, "MEAN_MOTION_DDOT": 0}, "tle": {"line1": "1 43582U 18062B   25354.16390858  .00000098  00000+0  00000+0 0  9993", "line2": "2 43582  54.0893 188.3797 0007833  47.8799 312.2437  1.86229954 50307"}}, "geometry": {"type": "Point", "coordinates": [-129.48697767397258, 42.78359912828912]}}, {"type": "Feature", "properties": {"norad_id": 43602, "name": "BEIDOU-3 M12 (C26)", "group": "gnss", "lat": 53.23449036384813, "lon": -68.17507211853486, "alt_km": 21508.17297626481, "timestamp": "2025-12-20T18:51:31.958056+00:00", "meta": {"OBJECT_NAME": "BEIDOU-3 M12 (C26)", "OBJECT_ID": "2018-067A", "EPOCH": "2025-12-19T13:33:24.239232", "MEAN_MOTION": 1.86227856, "ECCENTRICITY": 0.00092481, "INCLINATION": 54.1835, "RA_OF_ASC_NODE": 187.1314, "ARG_OF_PERICENTER": 41.3287, "MEAN_ANOMALY": 318.7989, "EPHEMERIS_TYPE": 0, "CLASSIFICATION_TYPE": "U", "NORAD_CAT_ID": 43602, "ELEMENT_SET_NO": 999, "REV_AT_EPOCH": 4977, "BSTAR": 0, "MEAN_MOTION_DOT": 1.01e-06, "MEAN_MOTION_DDOT": 0}, "tle": {"line1": "1 43602U 18067A   25353.56486388  .00000101  00000+0  00000+0 0  9993", "line2": "2 43602  54.1835 187.1314 0009248  41.3287 318.7989  1.86227856 49773"}}, "geometry": {"type": "Point", "coordinates": [-68.17507211853486, 53.23449036384813]}}, {"type": "Feature", "properties": {"norad_id": 43603, "name": "BEIDOU-3 M11 (C25)", "group": "gnss", "lat": 6.7830312618563315, "lon": -168.01004869612228, "alt_km": 21513.95904102746, "timestamp": "2025-12-20T18:51:31.958070+00:00", "meta": {"OBJECT_NAME": "BEIDOU-3 M11 (C25)", "OBJECT_ID": "2018-067B", "EPOCH": "2025-12-20T05:40:20.265024", "MEAN_MOTION": 1.86227366, "ECCENTRICITY": 0.00056565, "INCLINATION": 54.1806, "RA_OF_ASC_NODE": 187.0727, "ARG_OF_PERICENTER": 37.3238, "MEAN_ANOMALY": 322.7692, "EPHEMERIS_TYPE": 0, "CLASSIFICATION_TYPE": "U", "NORAD_CAT_ID": 43603, "ELEMENT_SET_NO": 999, "REV_AT_EPOCH": 4981, "BSTAR": 0, "MEAN_MOTION_DOT": 9.7e-07, "MEAN_MOTION_DDOT": 0}, "tle": {"line1": "1 43603U 18067B   25354.23634566  .00000097  00000+0  00000+0 0  9996", "line2": "2 43603  54.1806 187.0727 0005656  37.3238 322.7692  1.86227366 49816"}}, "geometry": {"type": "Point", "coordinates": [-168.01004869612228, 6.7830312618563315]}}, {"type": "Feature", "properties": {"norad_id": 43622, "name": "BEIDOU-3 M13 (C32)", "group": "gnss", "lat": 30.556433191244952, "lon": 91.58331517891195, "alt_km": 21526.931273527443, "timestamp": "2025-12-20T18:51:31.958081+00:00", "meta": {"OBJECT_NAME": "BEIDOU-3 M13 (C32)", "OBJECT_ID": "2018-072A", "EPOCH": "2025-12-19T15:44:25.442592", "MEAN_MOTION": 1.86231092, "ECCENTRICITY": 0.0006094, "INCLINATION": 56.4653, "RA_OF_ASC_NODE": 68.5911, "ARG_OF_PERICENTER": 298.8206, "MEAN_ANOMALY": 61.1557, "EPHEMERIS_TYPE": 0, "CLASSIFICATION_TYPE": "U", "NORAD_CAT_ID": 43622, "ELEMENT_SET_NO": 999, "REV_AT_EPOCH": 4931, "BSTAR": 0, "MEAN_MOTION_DOT": -5.1e-07, "MEAN_MOTION_DDOT": 0}, "tle": {"line1": "1 43622U 18072A   25353.65585003 -.00000051  00000+0  00000+0 0  9990", "line2": "2 43622  56.4653  68.5911 0006094 298.8206  61.1557  1.86231092 49316"}}, "geometry": {"type": "Point", "coordinates": [91.58331517891195, 30.556433191244952]}}, {"type": "Feature", "properties": {"norad_id": 43623, "name": "BEIDOU-3 M14 (C33)", "group": "gnss", "lat": 41.21735853720379, "lon": -146.88447940653558, "alt_km": 21532.032032374173, "timestamp": "2025-12-20T18:51:31.958094+00:00", "meta": {"OBJECT_NAME": "BEIDOU-3 M14 (C33)", "OBJECT_ID": "2018-072B", "EPOCH": "2025-12-20T01:23:54.905568", "MEAN_MOTION": 1.86231107, "ECCENTRICITY": 0.00034495, "INCLINATION": 56.4671, "RA_OF_ASC_NODE": 68.5717, "ARG_OF_PERICENTER": 329.1657, "MEAN_ANOMALY": 30.8537, "EPHEMERIS_TYPE": 0, "CLASSIFICATION_TYPE": "U", "NORAD_CAT_ID": 43623, "ELEMENT_SET_NO": 999, "REV_AT_EPOCH": 4931, "BSTAR": 0, "MEAN_MOTION_DOT": -4.7e-07, "MEAN_MOTION_DDOT": 0}, "tle": {"line1": "1 43623U 18072B   25354.05827437 -.00000047  00000+0  00000+0 0  9991", "line2": "2 43623  56.4671  68.5717 0003449 329.1657  30.8537  1.86231107 49318"}}, "geometry": {"type": "Point", "coordinates": [-146.88447940653558, 41.21735853720379]}}, {"type": "Feature", "properties": {"norad_id": 43647, "name": "BEIDOU-3 M16 (C35)", "group": "gnss", "lat": 17.747514333726954, "lon": -40.47012377118533, "alt_km": 21505.406504655097, "timestamp": "2025-12-20T18:51:31.958107+00:00", "meta": {"OBJECT_NAME": "BEIDOU-3 M16 (C35)", "OBJECT_ID": "2018-078A", "EPOCH": "2025-12-18T14:31:23.928384", "MEAN_MOTION": 1.86232416, "ECCENTRICITY": 0.00073312, "INCLINATION": 54.2565, "RA_OF_ASC_NODE": 306.3163, "ARG_OF_PERICENTER": 19.8035, "MEAN_ANOMALY": 340.2135, "EPHEMERIS_TYPE": 0, "CLASSIFICATION_TYPE": "U", "NORAD_CAT_ID": 43647, "ELEMENT_SET_NO": 999, "REV_AT_EPOCH": 4879, "BSTAR": 0, "MEAN_MOTION_DOT": -8.1e-07, "MEAN_MOTION_DDOT": 0}, "tle": {"line1": "1 43647U 18078A   25352.60513806 -.00000081  00000+0  00000+0 0  9992", "line2": "2 43647  54.2565 306.3163 0007331  19.8035 340.2135  1.86232416 48794"}}, "geometry": {"type": "Point", "coordinates": [-40.47012377118533, 17.747514333726954]}}]}